[{"OBJECT_NAME":"JILIN-1 KUANFU-01B","OBJECT_ID":"2021-061A","EPOCH":"2026-03-09T22:54:34.499808","MEAN_MOTION":15.09454544,"ECCENTRICITY":0.00089006,"INCLINATION":97.5272,"RA_OF_ASC_NODE":146.9765,"ARG_OF_PERICENTER":57.5197,"MEAN_ANOMALY":302.6891,"EPHEMERIS_TYPE":0,"CLASSIFICATION_TYPE":"U","NORAD_CAT_ID":49003,"ELEMENT_SET_NO":999,"REV_AT_EPOCH":25837,"BSTAR":0.00023291265,"MEAN_MOTION_DOT":3.668e-5,"MEAN_MOTION_DDOT":0},{"OBJECT_NAME":"STARLINK-3632","OBJECT_ID":"2022-017S","EPOCH":"2026-03-09T22:17:49.977888","MEAN_MOTION":15.0883931,"ECCENTRICITY":0.00012715,"INCLINATION":53.2193,"RA_OF_ASC_NODE":348.0477,"ARG_OF_PERICENTER":96.3478,"MEAN_ANOMALY":263.7659,"EPHEMERIS_TYPE":0,"CLASSIFICATION_TYPE":"U","NORAD_CAT_ID":51784,"ELEMENT_SET_NO":999,"REV_AT_EPOCH":22231,"BSTAR":-4.708072e-5,"MEAN_MOTION_DOT":-1.037e-5,"MEAN_MOTION_DDOT":0}]
